[{"OBJECT_NAME":"ONEWEB-0596","OBJECT_ID":"2022-166W","EPOCH":"2025-12-06T13:58:56.929440","MEAN_MOTION":13.21823809,"ECCENTRICITY":0.0001722,"INCLINATION":87.9213,"RA_OF_ASC_NODE":282.4043,"ARG_OF_PERICENTER":76.4665,"MEAN_ANOMALY":283.6661,"EPHEMERIS_TYPE":0,"CLASSIFICATION_TYPE":"U","NORAD_CAT_ID":54662,"ELEMENT_SET_NO":999,"REV_AT_EPOCH":14609,"BSTAR":6.5508913e-5,"MEAN_MOTION_DOT":4.0e-7,"MEAN_MOTION_DDOT":0},{"OBJECT_NAME":"ONEWEB-0597","OBJECT_ID":"2022-166X","EPOCH":"2025-12-06T02:38:53.093472","MEAN_MOTION":13.21823856,"ECCENTRICITY":0.00017653,"INCLINATION":87.9213,"RA_OF_ASC_NODE":282.5032,"ARG_OF_PERICENTER":81.8897,"MEAN_ANOMALY":278.2437,"EPHEMERIS_TYPE":0,"CLASSIFICATION_TYPE":"U","NORAD_CAT_ID":54663,"ELEMENT_SET_NO":999,"REV_AT_EPOCH":14603,"BSTAR":0.00017815863,"MEAN_MOTION_DOT":8.7e-7,"MEAN_MOTION_DDOT":0},{"OBJECT_NAME":"ONEWEB-0600","OBJECT_ID":"2022-166Y","EPOCH":"2025-12-06T13:06:49.547520","MEAN_MOTION":13.21824759,"ECCENTRICITY":0.00019055,"INCLINATION":87.9214,"RA_OF_ASC_NODE":282.4068,"ARG_OF_PERICENTER":81.3751,"MEAN_ANOMALY":278.7598,"EPHEMERIS_TYPE":0,"CLASSIFICATION_TYPE":"U","NORAD_CAT_ID":54664,"ELEMENT_SET_NO":999,"REV_AT_EPOCH":14606,"BSTAR":0.0001737875,"MEAN_MOTION_DOT":8.5e-7,"MEAN_MOTION_DDOT":0},{"OBJECT_NAME":"ONEWEB-0601","OBJECT_ID":"2022-166Z","EPOCH":"2025-12-06T12:54:58.727808","MEAN_MOTION":13.2182492,"ECCENTRICITY":0.00017585,"INCLINATION":87.9211,"RA_OF_ASC_NODE":282.4265,"ARG_OF_PERICENTER":87.711,"MEAN_ANOMALY":272.4225,"EPHEMERIS_TYPE":0,"CLASSIFICATION_TYPE":"U","NORAD_CAT_ID":54665,"ELEMENT_SET_NO":999,"REV_AT_EPOCH":14625,"BSTAR":-9.3752962e-5,"MEAN_MOTION_DOT":-2.6e-7,"MEAN_MOTION_DDOT":0},{"OBJECT_NAME":"ONEWEB-0602","OBJECT_ID":"2022-166AA","EPOCH":"2025-12-06T13:53:03.244128","MEAN_MOTION":13.21826028,"ECCENTRICITY":0.0002136,"INCLINATION":87.9212,"RA_OF_ASC_NODE":282.4224,"ARG_OF_PERICENTER":82.9969,"MEAN_ANOMALY":277.1408,"EPHEMERIS_TYPE":0,"CLASSIFICATION_TYPE":"U","NORAD_CAT_ID":54666,"ELEMENT_SET_NO":999,"REV_AT_EPOCH":14610,"BSTAR":-0.00014855495,"MEAN_MOTION_DOT":-4.8e-7,"MEAN_MOTION_DDOT":0},{"OBJECT_NAME":"ONEWEB-0603","OBJECT_ID":"2022-166AB","EPOCH":"2025-12-06T06:45:19.597248","MEAN_MOTION":13.21827638,"ECCENTRICITY":0.00018214,"INCLINATION":87.9221,"RA_OF_ASC_NODE":282.4204,"ARG_OF_PERICENTER":82.3509,"MEAN_ANOMALY":277.7832,"EPHEMERIS_TYPE":0,"CLASSIFICATION_TYPE":"U","NORAD_CAT_ID":54667,"ELEMENT_SET_NO":999,"REV_AT_EPOCH":14599,"BSTAR":0.00025906628,"MEAN_MOTION_DOT":1.2e-6,"MEAN_MOTION_DDOT":0},{"OBJECT_NAME":"ONEWEB-0604","OBJECT_ID":"2022-166AC","EPOCH":"2025-12-06T06:28:44.057568","MEAN_MOTION":13.21829159,"ECCENTRICITY":0.00018424,"INCLINATION":87.9215,"RA_OF_ASC_NODE":282.4429,"ARG_OF_PERICENTER":75.6997,"MEAN_ANOMALY":284.4341,"EPHEMERIS_TYPE":0,"CLASSIFICATION_TYPE":"U","NORAD_CAT_ID":54668,"ELEMENT_SET_NO":999,"REV_AT_EPOCH":14595,"BSTAR":0.00040498995,"MEAN_MOTION_DOT":1.8e-6,"MEAN_MOTION_DDOT":0},{"OBJECT_NAME":"ONEWEB-0605","OBJECT_ID":"2022-166AD","EPOCH":"2025-12-06T13:35:16.226592","MEAN_MOTION":13.21823985,"ECCENTRICITY":0.00014616,"INCLINATION":87.9213,"RA_OF_ASC_NODE":282.4119,"ARG_OF_PERICENTER":96.9381,"MEAN_ANOMALY":263.1919,"EPHEMERIS_TYPE":0,"CLASSIFICATION_TYPE":"U","NORAD_CAT_ID":54669,"ELEMENT_SET_NO":999,"REV_AT_EPOCH":14606,"BSTAR":0.00010693859,"MEAN_MOTION_DOT":5.7e-7,"MEAN_MOTION_DDOT":0},{"OBJECT_NAME":"ONEWEB-0606","OBJECT_ID":"2022-166AE","EPOCH":"2025-12-06T14:06:04.797792","MEAN_MOTION":13.21825417,"ECCENTRICITY":0.00017938,"INCLINATION":87.9212,"RA_OF_ASC_NODE":282.4188,"ARG_OF_PERICENTER":72.5996,"MEAN_ANOMALY":287.5334,"EPHEMERIS_TYPE":0,"CLASSIFICATION_TYPE":"U","NORAD_CAT_ID":54670,"ELEMENT_SET_NO":999,"REV_AT_EPOCH":14612,"BSTAR":-0.00016397198,"MEAN_MOTION_DOT":-5.5e-7,"MEAN_MOTION_DDOT":0},{"OBJECT_NAME":"ONEWEB-0607","OBJECT_ID":"2022-166AF","EPOCH":"2025-12-06T13:18:40.885632","MEAN_MOTION":13.2182554,"ECCENTRICITY":0.00018675,"INCLINATION":87.9216,"RA_OF_ASC_NODE":282.3886,"ARG_OF_PERICENTER":83.143,"MEAN_ANOMALY":276.9917,"EPHEMERIS_TYPE":0,"CLASSIFICATION_TYPE":"U","NORAD_CAT_ID":54671,"ELEMENT_SET_NO":999,"REV_AT_EPOCH":14609,"BSTAR":0.00026344076,"MEAN_MOTION_DOT":1.22e-6,"MEAN_MOTION_DDOT":0},{"OBJECT_NAME":"ONEWEB-0608","OBJECT_ID":"2022-166AG","EPOCH":"2025-12-06T13:28:08.556096","MEAN_MOTION":13.21824281,"ECCENTRICITY":0.00016414,"INCLINATION":87.9221,"RA_OF_ASC_NODE":282.3748,"ARG_OF_PERICENTER":96.66,"MEAN_ANOMALY":263.4721,"EPHEMERIS_TYPE":0,"CLASSIFICATION_TYPE":"U","NORAD_CAT_ID":54672,"ELEMENT_SET_NO":999,"REV_AT_EPOCH":14610,"BSTAR":0.00036794082,"MEAN_MOTION_DOT":1.65e-6,"MEAN_MOTION_DDOT":0},{"OBJECT_NAME":"ONEWEB-0610","OBJECT_ID":"2022-166AH","EPOCH":"2025-12-06T12:59:42.299520","MEAN_MOTION":13.2182431,"ECCENTRICITY":0.00017234,"INCLINATION":87.921,"RA_OF_ASC_NODE":282.412,"ARG_OF_PERICENTER":98.211,"MEAN_ANOMALY":261.922,"EPHEMERIS_TYPE":0,"CLASSIFICATION_TYPE":"U","NORAD_CAT_ID":54673,"ELEMENT_SET_NO":999,"REV_AT_EPOCH":14600,"BSTAR":0.00019114298,"MEAN_MOTION_DOT":9.2e-7,"MEAN_MOTION_DDOT":0},{"OBJECT_NAME":"ONEWEB-0611","OBJECT_ID":"2022-166AJ","EPOCH":"2025-12-06T12:50:15.267552","MEAN_MOTION":13.21826157,"ECCENTRICITY":0.00018964,"INCLINATION":87.9211,"RA_OF_ASC_NODE":282.4092,"ARG_OF_PERICENTER":72.2614,"MEAN_ANOMALY":287.8727,"EPHEMERIS_TYPE":0,"CLASSIFICATION_TYPE":"U","NORAD_CAT_ID":54674,"ELEMENT_SET_NO":999,"REV_AT_EPOCH":14599,"BSTAR":2.7524126e-5,"MEAN_MOTION_DOT":2.4e-7,"MEAN_MOTION_DDOT":0},{"OBJECT_NAME":"ONEWEB-0612","OBJECT_ID":"2022-166AK","EPOCH":"2025-12-06T13:09:11.594304","MEAN_MOTION":13.21824907,"ECCENTRICITY":0.00017771,"INCLINATION":87.9213,"RA_OF_ASC_NODE":282.3856,"ARG_OF_PERICENTER":82.837,"MEAN_ANOMALY":277.2966,"EPHEMERIS_TYPE":0,"CLASSIFICATION_TYPE":"U","NORAD_CAT_ID":54675,"ELEMENT_SET_NO":999,"REV_AT_EPOCH":14598,"BSTAR":0.00017990911,"MEAN_MOTION_DOT":8.7e-7,"MEAN_MOTION_DDOT":0},{"OBJECT_NAME":"ONEWEB-0615","OBJECT_ID":"2022-166AL","EPOCH":"2025-12-06T14:29:46.805280","MEAN_MOTION":13.21825476,"ECCENTRICITY":0.0001813,"INCLINATION":87.9213,"RA_OF_ASC_NODE":282.4015,"ARG_OF_PERICENTER":78.6042,"MEAN_ANOMALY":281.5296,"EPHEMERIS_TYPE":0,"CLASSIFICATION_TYPE":"U","NORAD_CAT_ID":54676,"ELEMENT_SET_NO":999,"REV_AT_EPOCH":14600,"BSTAR":-0.0002833861,"MEAN_MOTION_DOT":-1.04e-6,"MEAN_MOTION_DDOT":0},{"OBJECT_NAME":"ONEWEB-0655","OBJECT_ID":"2022-166AM","EPOCH":"2025-12-06T13:54:14.323680","MEAN_MOTION":13.21825027,"ECCENTRICITY":0.00020286,"INCLINATION":87.921,"RA_OF_ASC_NODE":282.4105,"ARG_OF_PERICENTER":84.3121,"MEAN_ANOMALY":275.8245,"EPHEMERIS_TYPE":0,"CLASSIFICATION_TYPE":"U","NORAD_CAT_ID":54677,"ELEMENT_SET_NO":999,"REV_AT_EPOCH":14599,"BSTAR":-0.00013758891,"MEAN_MOTION_DOT":-4.4e-7,"MEAN_MOTION_DDOT":0}]
