ONEWEB-0596             
1 54662U 22166W   25340.58260335  .00000040  00000+0  65509-4 0  9998
2 54662  87.9213 282.4043 0001722  76.4665 283.6661 13.21823809146093
ONEWEB-0597             
1 54663U 22166X   25340.11033673  .00000087  00000+0  17816-3 0  9999
2 54663  87.9213 282.5032 0001765  81.8897 278.2437 13.21823856146034
ONEWEB-0600             
1 54664U 22166Y   25340.54640680  .00000085  00000+0  17379-3 0  9991
2 54664  87.9214 282.4068 0001905  81.3751 278.7598 13.21824759146063
ONEWEB-0601             
1 54665U 22166Z   25340.53817972 -.00000026  00000+0 -93753-4 0  9999
2 54665  87.9211 282.4265 0001758  87.7110 272.4225 13.21824920146254
ONEWEB-0602             
1 54666U 22166AA  25340.57850977 -.00000048  00000+0 -14855-3 0  9995
2 54666  87.9212 282.4224 0002136  82.9969 277.1408 13.21826028146101
ONEWEB-0603             
1 54667U 22166AB  25340.28147682  .00000120  00000+0  25907-3 0  9995
2 54667  87.9221 282.4204 0001821  82.3509 277.7832 13.21827638145995
ONEWEB-0604             
1 54668U 22166AC  25340.26995437  .00000180  00000+0  40499-3 0  9992
2 54668  87.9215 282.4429 0001842  75.6997 284.4341 13.21829159145953
ONEWEB-0605             
1 54669U 22166AD  25340.56616003  .00000057  00000+0  10694-3 0  9992
2 54669  87.9213 282.4119 0001461  96.9381 263.1919 13.21823985146067
ONEWEB-0606             
1 54670U 22166AE  25340.58755553 -.00000055  00000+0 -16397-3 0  9996
2 54670  87.9212 282.4188 0001793  72.5996 287.5334 13.21825417146124
ONEWEB-0607             
1 54671U 22166AF  25340.55463988  .00000122  00000+0  26344-3 0  9998
2 54671  87.9216 282.3886 0001867  83.1430 276.9917 13.21825540146098
ONEWEB-0608             
1 54672U 22166AG  25340.56121014  .00000165  00000+0  36794-3 0  9998
2 54672  87.9221 282.3748 0001641  96.6600 263.4721 13.21824281146107
ONEWEB-0610             
1 54673U 22166AH  25340.54146180  .00000092  00000+0  19114-3 0  9994
2 54673  87.9210 282.4120 0001723  98.2110 261.9220 13.21824310146005
ONEWEB-0611             
1 54674U 22166AJ  25340.53489893  .00000024  00000+0  27524-4 0  9995
2 54674  87.9211 282.4092 0001896  72.2614 287.8727 13.21826157145994
ONEWEB-0612             
1 54675U 22166AK  25340.54805086  .00000087  00000+0  17991-3 0  9998
2 54675  87.9213 282.3856 0001777  82.8370 277.2966 13.21824907145986
ONEWEB-0615             
1 54676U 22166AL  25340.60401395 -.00000104  00000+0 -28339-3 0  9991
2 54676  87.9213 282.4015 0001813  78.6042 281.5296 13.21825476146005
ONEWEB-0655             
1 54677U 22166AM  25340.57933245 -.00000044  00000+0 -13759-3 0  9995
2 54677  87.9210 282.4105 0002028  84.3121 275.8245 13.21825027145993
